H1 CPF  1  HTS 2022  1  9 12  5091 larets           NONE
H2  0304206 5557    27944 2022 01 09  0  0  0 2022 01 14  0  0  0   180 1 1  0 0 0
H5  0.0560 
H9 
10 0 59591  82440.00000  0     911934.977    -494121.841    6968944.033
10 0 59591  82620.00000  0     -37775.749   -1471659.689    6891512.385
10 0 59591  82800.00000  0   -1010737.533   -2370334.417    6561133.930
10 0 59591  82980.00000  0   -1969009.155   -3157310.586    5990000.915
10 0 59591  83160.00000  0   -2874397.855   -3804826.210    5199105.931
10 0 59591  83340.00000  0   -3689995.264   -4291191.645    4217494.379
10 0 59591  83520.00000  0   -4381706.097   -4601536.500    3081208.585
10 0 59591  83700.00000  0   -4919690.790   -4728271.779    1831962.374
10 0 59591  83880.00000  0   -5279663.816   -4671249.878     515592.332
10 0 59591  84060.00000  0   -5443982.154   -4437608.531    -819659.705
10 0 59591  84240.00000  0   -5402466.232   -4041307.381   -2124959.163
10 0 59591  84420.00000  0   -5152907.265   -3502379.707   -3352705.904
10 0 59591  84600.00000  0   -4701238.496   -2845945.231   -4458285.303
10 0 59591  84780.00000  0   -4061376.095   -2101044.879   -5401673.395
10 0 59591  84960.00000  0   -3254744.784   -1299357.817   -6148840.619
10 0 59591  85140.00000  0   -2309519.149    -473862.281   -6672911.770
10 0 59591  85320.00000  0   -1259617.455     342500.735   -6955056.786
10 0 59591  85500.00000  0    -143491.502    1118107.727   -6985099.938
10 0 59591  85680.00000  0     997244.566    1823840.195   -6761853.075
10 0 59591  85860.00000  0    2119317.385    2434149.206   -6293174.648
10 0 59591  86040.00000  0    3179396.804    2927970.875   -5595741.494
10 0 59591  86220.00000  0    4135744.436    3289461.017   -4694527.681
10 0 59592      0.00000  0    4949860.476    3508527.032   -3621997.728
10 0 59592    180.00000  0    5588069.512    3581131.987   -2417010.897
10 0 59592    360.00000  0    6022967.954    3509351.514   -1123458.826
10 0 59592    540.00000  0    6234661.372    3301171.360     211326.261
10 0 59592    720.00000  0    6211718.157    2970024.786    1538333.201
10 0 59592    900.00000  0    5951779.026    2534089.261    2808727.965
10 0 59592   1080.00000  0    5461782.154    2015379.590    3975719.616
10 0 59592   1260.00000  0    4757785.031    1438680.783    4996346.658
10 0 59592   1440.00000  0    3864397.171     830381.776    5833094.255
10 0 59592   1620.00000  0    2813859.218     217272.168    6455284.540
10 0 59592   1800.00000  0    1644813.075    -374636.183    6840181.019
10 0 59592   1980.00000  0     400833.525    -921209.482    6973788.925
10 0 59592   2160.00000  0    -871232.181   -1401176.266    6851335.142
10 0 59592   2340.00000  0   -2123049.677   -1796956.861    6477413.724
10 0 59592   2520.00000  0   -3306641.735   -2095307.428    5865805.048
10 0 59592   2700.00000  0   -4376239.977   -2287762.444    5038986.242
10 0 59592   2880.00000  0   -5290087.099   -2370866.400    4027322.808
10 0 59592   3060.00000  0   -6012103.674   -2346178.057    2867960.014
10 0 59592   3240.00000  0   -6513351.256   -2220049.078    1603458.106
10 0 59592   3420.00000  0   -6773231.111   -2003192.106     280209.851
10 0 59592   3600.00000  0   -6780346.268   -1710052.467   -1053303.016
10 0 59592   3780.00000  0   -6532982.334   -1358017.194   -2348331.446
10 0 59592   3960.00000  0   -6039183.701    -966507.665   -3557675.704
10 0 59592   4140.00000  0   -5316432.516    -556005.255   -4637416.260
10 0 59592   4320.00000  0   -4390956.181    -147057.513   -5548490.023
10 0 59592   4500.00000  0   -3296705.640     240683.617   -6258054.315
10 0 59592   4680.00000  0   -2074061.470     589346.892   -6740597.303
10 0 59592   4860.00000  0    -768332.630     883613.923   -6978777.870
10 0 59592   5040.00000  0     571898.697    1111354.139   -6963987.976
10 0 59592   5220.00000  0    1896532.510    1264104.038   -6696638.678
10 0 59592   5400.00000  0    3155772.837    1337378.415   -6186170.815
10 0 59592   5580.00000  0    4301963.913    1330803.658   -5450771.318
10 0 59592   5760.00000  0    5291382.133    1248066.194   -4516802.021
10 0 59592   5940.00000  0    6085933.561    1096677.828   -3417940.632
10 0 59592   6120.00000  0    6654684.814     887561.409   -2194037.202
10 0 59592   6300.00000  0    6975157.435     634470.519    -889711.017
10 0 59592   6480.00000  0    7034309.676     353265.528     447277.317
10 0 59592   6660.00000  0    6829139.583      61081.144    1767810.308
10 0 59592   6840.00000  0    6366872.566    -224573.875    3023278.802
10 0 59592   7020.00000  0    5664707.836    -486736.378    4167442.074
10 0 59592   7200.00000  0    4749138.735    -709875.296    5158186.458
10 0 59592   7380.00000  0    3654889.336    -880698.805    5959109.113
10 0 59592   7560.00000  0    2423521.299    -988838.800    6540858.352
10 0 59592   7740.00000  0    1101790.408   -1027382.546    6882189.117
10 0 59592   7920.00000  0    -260178.805    -993230.824    6970709.368
10 0 59592   8100.00000  0   -1610826.460    -887267.092    6803296.235
10 0 59592   8280.00000  0   -2899122.640    -714333.069    6386184.114
10 0 59592   8460.00000  0   -4076503.537    -483011.061    5734732.833
10 0 59592   8640.00000  0   -5098723.724    -205223.232    4872879.525
10 0 59592   8820.00000  0   -5927556.099     104336.605    3832275.024
10 0 59592   9000.00000  0   -6532264.947     428916.422    2651128.074
10 0 59592   9180.00000  0   -6890790.946     750534.203    1372797.508
10 0 59592   9360.00000  0   -6990593.595    1050880.649      44175.575
10 0 59592   9540.00000  0   -6829102.252    1312249.796   -1286074.601
10 0 59592   9720.00000  0   -6413748.953    1518448.912   -2569345.038
10 0 59592   9900.00000  0   -5761593.437    1655641.986   -3758889.455
10 0 59592  10080.00000  0   -4898558.316    1713083.248   -4811537.430
10 0 59592  10260.00000  0   -3858324.583    1683702.807   -5689234.603
10 0 59592  10440.00000  0   -2680959.589    1564522.953   -6360359.542
10 0 59592  10620.00000  0   -1411346.698    1356890.332   -6800789.344
10 0 59592  10800.00000  0     -97477.801    1066518.978   -6994691.919
10 0 59592  10980.00000  0    1211322.323     703344.826   -6935037.861
10 0 59592  11160.00000  0    2466194.237     281197.554   -6623841.900
10 0 59592  11340.00000  0    3620524.303    -182705.934   -6072118.155
10 0 59592  11520.00000  0    4631650.196    -668431.790   -5299545.026
10 0 59592  11700.00000  0    5462443.022   -1154146.301   -4333844.820
10 0 59592  11880.00000  0    6082718.707   -1617055.661   -3209874.633
10 0 59592  12060.00000  0    6470412.181   -2034433.147   -1968434.255
10 0 59592  12240.00000  0    6612453.849   -2384690.052    -654818.466
10 0 59592  12420.00000  0    6505293.528   -2648436.226     682840.840
10 0 59592  12600.00000  0    6155033.753   -2809473.831    1995379.121
10 0 59592  12780.00000  0    5577151.476   -2855667.656    3234472.066
10 0 59592  12960.00000  0    4795814.750   -2779641.698    4354483.608
10 0 59592  13140.00000  0    3842835.539   -2579261.059    5314197.599
10 0 59592  13320.00000  0    2756320.044   -2257880.616    6078363.985
10 0 59592  13500.00000  0    1579080.346   -1824344.874    6618993.663
10 0 59592  13680.00000  0     356894.780   -1292744.057    6916359.753
10 0 59592  13860.00000  0    -863309.228    -681939.333    6959683.569
10 0 59592  14040.00000  0   -2035275.380     -14875.948    6747493.658
10 0 59592  14220.00000  0   -3115179.895     682290.281    6287660.014
10 0 59592  14400.00000  0   -4063280.018    1381224.312    5597105.760
10 0 59592  14580.00000  0   -4845398.051    2052564.646    4701200.749
10 0 59592  14760.00000  0   -5434186.799    2667157.417    3632845.223
10 0 59592  14940.00000  0   -5810119.891    3197320.715    2431266.395
10 0 59592  15120.00000  0   -5962166.172    3618081.739    1140570.268
10 0 59592  15300.00000  0   -5888116.592    3908329.463    -191906.157
10 0 59592  15480.00000  0   -5594539.292    4051818.234   -1517373.524
10 0 59592  15660.00000  0   -5096371.310    4037973.504   -2787419.968
10 0 59592  15840.00000  0   -4416163.987    3862456.206   -3955812.389
10 0 59592  16020.00000  0   -3583030.430    3527459.447   -4980180.534
10 0 59592  16200.00000  0   -2631363.079    3041733.701   -5823517.659
10 0 59592  16380.00000  0   -1599393.760    2420349.785   -6455454.510
10 0 59592  16560.00000  0    -527656.223    1684213.830   -6853280.119
10 0 59592  16740.00000  0     542583.997     859357.524   -7002684.990
10 0 59592  16920.00000  0    1570876.998     -23967.054   -6898228.733
10 0 59592  17100.00000  0    2519077.072    -932366.079   -6543528.524
10 0 59592  17280.00000  0    3352726.085   -1830527.880   -5951159.836
10 0 59592  17460.00000  0    4042295.925   -2682557.477   -5142274.142
10 0 59592  17640.00000  0    4564256.647   -3453391.786   -4145928.786
10 0 59592  17820.00000  0    4901922.614   -4110243.639   -2998122.686
10 0 59592  18000.00000  0    5046042.531   -4624012.838   -1740559.392
10 0 59592  18180.00000  0    4995099.346   -4970601.842    -419159.831
10 0 59592  18360.00000  0    4755288.821   -5132065.477     917628.175
10 0 59592  18540.00000  0    4340166.638   -5097523.190    2220654.897
10 0 59592  18720.00000  0    3769975.971   -4863776.692    3441942.842
10 0 59592  18900.00000  0    3070690.655   -4435599.361    4536518.033
10 0 59592  19080.00000  0    2272825.427   -3825679.146    5464115.620
10 0 59592  19260.00000  0    1410079.696   -3054220.652    6190683.914
10 0 59592  19440.00000  0     517883.329   -2148230.365    6689629.782
10 0 59592  19620.00000  0    -368083.801   -1140524.880    6942763.198
10 0 59592  19800.00000  0   -1213331.756     -68507.071    6940926.486
10 0 59592  19980.00000  0   -1985908.982    1027246.629    6684299.740
10 0 59592  20160.00000  0   -2657614.906    2104536.269    6182377.257
10 0 59592  20340.00000  0   -3205035.994    3121173.216    5453620.000
99
